0 ATLAS CENTAUR R/B
1 08331U 75091B   13281.24037883 -.00000109  00000-0  19984-3 0  1387
2 08331 022.2647 357.9098 7220124 152.5296 279.3954 02.21713418305869
0 ATLAS CENTAUR R/B
1 08331U 75091B   13282.59076292 -.00000080  00000-0  64705-3 0  1393
2 08331 022.2658 357.4414 7219945 153.3611 277.2269 02.21712904305895
0 ATLAS CENTAUR R/B
1 08331U 75091B   13283.49120157 -.00000102  00000-0  00000+0 0  1415
2 08331 022.2462 357.1561 7220827 153.8884 275.9087 02.21714394305917
0 ATLAS CENTAUR R/B
1 08331U 75091B   13285.29137063 -.00000077  00000-0  71276-3 0  1406
2 08331 022.2679 356.5056 7219602 155.0227 272.7446 02.21713178305950
0 ATLAS CENTAUR R/B
1 08331U 75091B   13287.54163913 -.00000070  00000-0  42585-3 0  1414
2 08331 022.2695 355.7265 7219194 156.4058 268.8128 02.21714340306006
0 ATLAS CENTAUR R/B
1 08331U 75091B   13290.24162589 -.00000092  00000-0 -70198-4 0  1421
2 08331 022.2712 354.7930 7218779 158.0619 263.8406 02.21715403306064
0 ATLAS CENTAUR R/B
1 08331U 75091B   13292.49138613 -.00000162  00000-0 -47522-3 0  1434
2 08331 022.2723 354.0161 7218512 159.4397 259.5216 02.21716020306111
0 ATLAS CENTAUR R/B
1 08331U 75091B   13295.19087409 -.00000259  00000-0 -87039-3 0  1445
2 08331 022.2735 353.0844 7218201 161.0922 254.1665 02.21716328306175
